{"type": "FeatureCollection", "features": [ {"type": "Feature", "properties": {"norad_id": 31456, "name": "FENGYUN 1C DEB", "group": "fengyun-1c-debris", "lat": 4.018984738803807, "lon": 96.94984195348167, "alt_km": 740.3473905641667, "timestamp": "2025-12-21T03:56:51.118046+00:00", "meta": {"OBJECT_NAME": "FENGYUN 1C DEB", "OBJECT_ID": "1999-025BUU", "EPOCH": "2025-12-17T13:21:30.732480", "MEAN_MOTION": 14.42423971, "ECCENTRICITY": 0.00676593, "INCLINATION": 98.5778, "RA_OF_ASC_NODE": 93.9301, "ARG_OF_PERICENTER": 299.6577, "MEAN_ANOMALY": 59.7886, "EPHEMERIS_TYPE": 0, "CLASSIFICATION_TYPE": "U", "NORAD_CAT_ID": 31456, "ELEMENT_SET_NO": 999, "REV_AT_EPOCH": 97536, "BSTAR": 0.0006424571, "MEAN_MOTION_DOT": 2.138e-05, "MEAN_MOTION_DDOT": 0}, "tle": {"line1": "1 31456U 99025BUU 25351.55660570  .00002138  00000+0  64246-3 0  9992", "line2": "2 31456  98.5778  93.9301 0067659 299.6577  59.7886 14.42423971975368"}}, "geometry": {"type": "Point", "coordinates": [96.94984195348167, 4.018984738803807]}}, {"type": "Feature", "properties": {"norad_id": 31459, "name": "FENGYUN 1C DEB", "group": "fengyun-1c-debris", "lat": -3.1471018176324184, "lon": -96.44280943428485, "alt_km": 769.3685332909226, "timestamp": "2025-12-21T03:56:51.118056+00:00", "meta": {"OBJECT_NAME": "FENGYUN 1C DEB", "OBJECT_ID": "1999-025BUX", "EPOCH": "2025-12-12T23:44:38.705568", "MEAN_MOTION": 14.44083824, "ECCENTRICITY": 0.00940456, "INCLINATION": 98.1765, "RA_OF_ASC_NODE": 255.2445, "ARG_OF_PERICENTER": 130.906, "MEAN_ANOMALY": 230.0325, "EPHEMERIS_TYPE": 0, "CLASSIFICATION_TYPE": "U", "NORAD_CAT_ID": 31459, "ELEMENT_SET_NO": 999, "REV_AT_EPOCH": 64561, "BSTAR": 0.0020176648, "MEAN_MOTION_DOT": 7.253e-05, "MEAN_MOTION_DDOT": 0}, "tle": {"line1": "1 31459U 99025BUX 25346.98933687  .00007253  00000+0  20177-2 0  9995", "line2": "2 31459  98.1765 255.2445 0094045 130.9060 230.0325 14.44083824645613"}}, "geometry": {"type": "Point", "coordinates": [-96.44280943428485, -3.1471018176324184]}}, {"type": "Feature", "properties": {"norad_id": 31462, "name": "FENGYUN 1C DEB", "group": "fengyun-1c-debris", "lat": -42.95843175088587, "lon": 21.505667470267507, "alt_km": 872.4776506958742, "timestamp": "2025-12-21T03:56:51.118065+00:00", "meta": {"OBJECT_NAME": "FENGYUN 1C DEB", "OBJECT_ID": "1999-025BVA", "EPOCH": "2025-12-17T00:11:35.659104", "MEAN_MOTION": 14.13016034, "ECCENTRICITY": 0.00322795, "INCLINATION": 98.6896, "RA_OF_ASC_NODE": 9.2845, "ARG_OF_PERICENTER": 192.0461, "MEAN_ANOMALY": 232.8507, "EPHEMERIS_TYPE": 0, "CLASSIFICATION_TYPE": "U", "NORAD_CAT_ID": 31462, "ELEMENT_SET_NO": 999, "REV_AT_EPOCH": 95916, "BSTAR": 0.00031044723, "MEAN_MOTION_DOT": 5.39e-06, "MEAN_MOTION_DDOT": 0}, "tle": {"line1": "1 31462U 99025BVA 25351.00805161  .00000539  00000+0  31045-3 0  9990", "line2": "2 31462  98.6896   9.2845 0032279 192.0461 232.8507 14.13016034959168"}}, "geometry": {"type": "Point", "coordinates": [21.505667470267507, -42.95843175088587]}}, {"type": "Feature", "properties": {"norad_id": 31463, "name": "FENGYUN 1C DEB", "group": "fengyun-1c-debris", "lat": -72.835566894394, "lon": 8.50034265917907, "alt_km": 773.9262501445701, "timestamp": "2025-12-21T03:56:51.118074+00:00", "meta": {"OBJECT_NAME": "FENGYUN 1C DEB", "OBJECT_ID": "1999-025BVB", "EPOCH": "2025-12-17T05:02:14.245440", "MEAN_MOTION": 14.36964853, "ECCENTRICITY": 0.02135653, "INCLINATION": 99.0801, "RA_OF_ASC_NODE": 333.1449, "ARG_OF_PERICENTER": 26.7734, "MEAN_ANOMALY": 334.4288, "EPHEMERIS_TYPE": 0, "CLASSIFICATION_TYPE": "U", "NORAD_CAT_ID": 31463, "ELEMENT_SET_NO": 999, "REV_AT_EPOCH": 64784, "BSTAR": 0.00042071423, "MEAN_MOTION_DOT": 1.563e-05, "MEAN_MOTION_DDOT": 0}, "tle": {"line1": "1 31463U 99025BVB 25351.20988710  .00001563  00000+0  42071-3 0  9994", "line2": "2 31463  99.0801 333.1449 0213565  26.7734 334.4288 14.36964853647844"}}, "geometry": {"type": "Point", "coordinates": [8.50034265917907, -72.835566894394]}}, {"type": "Feature", "properties": {"norad_id": 31464, "name": "FENGYUN 1C DEB", "group": "fengyun-1c-debris", "lat": -62.61181136018204, "lon": -155.59198609264678, "alt_km": 829.7375728167981, "timestamp": "2025-12-21T03:56:51.118083+00:00", "meta": {"OBJECT_NAME": "FENGYUN 1C DEB", "OBJECT_ID": "1999-025BVC", "EPOCH": "2025-12-19T22:29:16.076832", "MEAN_MOTION": 14.12484181, "ECCENTRICITY": 0.0043445, "INCLINATION": 98.7938, "RA_OF_ASC_NODE": 40.5879, "ARG_OF_PERICENTER": 221.5189, "MEAN_ANOMALY": 263.9379, "EPHEMERIS_TYPE": 0, "CLASSIFICATION_TYPE": "U", "NORAD_CAT_ID": 31464, "ELEMENT_SET_NO": 999, "REV_AT_EPOCH": 94781, "BSTAR": 0.00024711, "MEAN_MOTION_DOT": 4.17e-06, "MEAN_MOTION_DDOT": 0}, "tle": {"line1": "1 31464U 99025BVC 25353.93699163  .00000417  00000+0  24711-3 0  9996", "line2": "2 31464  98.7938  40.5879 0043445 221.5189 263.9379 14.12484181947817"}}, "geometry": {"type": "Point", "coordinates": [-155.59198609264678, -62.61181136018204]}}, {"type": "Feature", "properties": {"norad_id": 31466, "name": "FENGYUN 1C DEB", "group": "fengyun-1c-debris", "lat": -37.54103944362556, "lon": -67.59882641945651, "alt_km": 662.4661791396229, "timestamp": "2025-12-21T03:56:51.118093+00:00", "meta": {"OBJECT_NAME": "FENGYUN 1C DEB", "OBJECT_ID": "1999-025BVE", "EPOCH": "2025-12-16T02:14:17.384928", "MEAN_MOTION": 14.1852535, "ECCENTRICITY": 0.02990788, "INCLINATION": 99.0889, "RA_OF_ASC_NODE": 280.1326, "ARG_OF_PERICENTER": 299.2838, "MEAN_ANOMALY": 57.8749, "EPHEMERIS_TYPE": 0, "CLASSIFICATION_TYPE": "U", "NORAD_CAT_ID": 31466, "ELEMENT_SET_NO": 999, "REV_AT_EPOCH": 96376, "BSTAR": 0.00020920335, "MEAN_MOTION_DOT": 6.16e-06, "MEAN_MOTION_DDOT": 0}, "tle": {"line1": "1 31466U 99025BVE 25350.09325677  .00000616  00000+0  20920-3 0  9997", "line2": "2 31466  99.0889 280.1326 0299078 299.2838  57.8749 14.18525350963768"}}, "geometry": {"type": "Point", "coordinates": [-67.59882641945651, -37.54103944362556]}}, {"type": "Feature", "properties": {"norad_id": 31468, "name": "FENGYUN 1C DEB", "group": "fengyun-1c-debris", "lat": 7.984508830660957, "lon": 172.12526690932629, "alt_km": 636.2514866294459, "timestamp": "2025-12-21T03:56:51.118102+00:00", "meta": {"OBJECT_NAME": "FENGYUN 1C DEB", "OBJECT_ID": "1999-025BVG", "EPOCH": "2025-12-15T17:40:52.277088", "MEAN_MOTION": 14.46598121, "ECCENTRICITY": 0.01665536, "INCLINATION": 98.1678, "RA_OF_ASC_NODE": 345.7354, "ARG_OF_PERICENTER": 157.6429, "MEAN_ANOMALY": 203.2135, "EPHEMERIS_TYPE": 0, "CLASSIFICATION_TYPE": "U", "NORAD_CAT_ID": 31468, "ELEMENT_SET_NO": 999, "REV_AT_EPOCH": 67415, "BSTAR": 0.00027310227, "MEAN_MOTION_DOT": 1.122e-05, "MEAN_MOTION_DDOT": 0}, "tle": {"line1": "1 31468U 99025BVG 25349.73671617  .00001122  00000+0  27310-3 0  9999", "line2": "2 31468  98.1678 345.7354 0166553 157.6429 203.2135 14.46598121674154"}}, "geometry": {"type": "Point", "coordinates": [172.12526690932629, 7.984508830660957]}}, {"type": "Feature", "properties": {"norad_id": 31473, "name": "FENGYUN 1C DEB", "group": "fengyun-1c-debris", "lat": 8.282594446685032, "lon": -150.67554599346482, "alt_km": 840.348961540566, "timestamp": "2025-12-21T03:56:51.118111+00:00", "meta": {"OBJECT_NAME": "FENGYUN 1C DEB", "OBJECT_ID": "1999-025BVM", "EPOCH": "2025-12-19T07:45:43.627968", "MEAN_MOTION": 14.29830542, "ECCENTRICITY": 0.0064578, "INCLINATION": 98.5452, "RA_OF_ASC_NODE": 26.2636, "ARG_OF_PERICENTER": 355.3694, "MEAN_ANOMALY": 64.8933, "EPHEMERIS_TYPE": 0, "CLASSIFICATION_TYPE": "U", "NORAD_CAT_ID": 31473, "ELEMENT_SET_NO": 999, "REV_AT_EPOCH": 69615, "BSTAR": 0.0010461, "MEAN_MOTION_DOT": 2.708e-05, "MEAN_MOTION_DDOT": 0}, "tle": {"line1": "1 31473U 99025BVM 25353.32342162  .00002708  00000+0  10461-2 0  9994", "line2": "2 31473  98.5452  26.2636 0064578 355.3694  64.8933 14.29830542696151"}}, "geometry": {"type": "Point", "coordinates": [-150.67554599346482, 8.282594446685032]}}, {"type": "Feature", "properties": {"norad_id": 31474, "name": "FENGYUN 1C DEB", "group": "fengyun-1c-debris", "lat": -54.28558197140581, "lon": -151.7790016015977, "alt_km": 831.9847750712179, "timestamp": "2025-12-21T03:56:51.118120+00:00", "meta": {"OBJECT_NAME": "FENGYUN 1C DEB", "OBJECT_ID": "1999-025BVN", "EPOCH": "2025-12-17T20:31:53.420160", "MEAN_MOTION": 14.10616871, "ECCENTRICITY": 0.00720818, "INCLINATION": 99.1448, "RA_OF_ASC_NODE": 37.8022, "ARG_OF_PERICENTER": 192.292, "MEAN_ANOMALY": 167.6494, "EPHEMERIS_TYPE": 0, "CLASSIFICATION_TYPE": "U", "NORAD_CAT_ID": 31474, "ELEMENT_SET_NO": 999, "REV_AT_EPOCH": 95042, "BSTAR": 0.0012018353, "MEAN_MOTION_DOT": 2.151e-05, "MEAN_MOTION_DDOT": 0}, "tle": {"line1": "1 31474U 99025BVN 25351.85547940  .00002151  00000+0  12018-2 0  9994", "line2": "2 31474  99.1448  37.8022 0072081 192.2920 167.6494 14.10616871950423"}}, "geometry": {"type": "Point", "coordinates": [-151.7790016015977, -54.28558197140581]}}, {"type": "Feature", "properties": {"norad_id": 31475, "name": "FENGYUN 1C DEB", "group": "fengyun-1c-debris", "lat": -54.855686261276205, "lon": -102.87214191310828, "alt_km": 882.5529003186875, "timestamp": "2025-12-21T03:56:51.118129+00:00", "meta": {"OBJECT_NAME": "FENGYUN 1C DEB", "OBJECT_ID": "1999-025BVP", "EPOCH": "2025-12-19T10:28:07.826880", "MEAN_MOTION": 14.38229, "ECCENTRICITY": 0.0211787, "INCLINATION": 98.9397, "RA_OF_ASC_NODE": 242.4077, "ARG_OF_PERICENTER": 87.4314, "MEAN_ANOMALY": 275.1095, "EPHEMERIS_TYPE": 0, "CLASSIFICATION_TYPE": "U", "NORAD_CAT_ID": 31475, "ELEMENT_SET_NO": 999, "REV_AT_EPOCH": 96175, "BSTAR": 0.000435, "MEAN_MOTION_DOT": 1.661e-05, "MEAN_MOTION_DDOT": 0}, "tle": {"line1": "1 31475U 99025BVP 25353.43620170  .00001661  00000+0  43500-3 0  9994", "line2": "2 31475  98.9397 242.4077 0211787  87.4314 275.1095 14.38229000961752"}}, "geometry": {"type": "Point", "coordinates": [-102.87214191310828, -54.855686261276205]}}]}